<?xml version='1.0' encoding='UTF-8'?>
<osm version="0.6" generator="Handmade">
  <bounds minlat="51.49" minlon="-0.15" maxlat="51.53" maxlon="-0.08"/>
  <node id="1" lat="51.5074" lon="-0.1278" version="1"/>
  <node id="2" lat="51.5150" lon="-0.1100" version="1"/>
  <node id="3" lat="51.5200" lon="-0.1000" version="1"/>
  <node id="4" lat="51.5000" lon="-0.1400" version="1"/>
  <node id="5" lat="51.5100" lon="-0.1200" version="1"/>
  <node id="6" lat="51.5050" lon="-0.0900" version="1"/>

  <way id="100" version="1">
    <nd ref="4"/>
    <nd ref="1"/>
    <nd ref="5"/>
    <nd ref="2"/>
    <nd ref="3"/>
    <tag k="highway" v="primary"/>
    <tag k="name" v="Main Road"/>
    <tag k="maxspeed" v="50"/>
  </way>

  <way id="101" version="1">
    <nd ref="1"/>
    <nd ref="6"/>
    <nd ref="2"/>
    <tag k="highway" v="secondary"/>
    <tag k="name" v="Side Street"/>
  </way>
</osm>
